STARLINK-11470 [DTC]    
1 62062U 24217F   26022.02247659  .00278685  00000+0  22317-2 0  9991
2 62062  53.1565 301.3259 0000805 108.8585 251.2520 15.69676950 67783
STARLINK-11427 [DTC]    
1 62063U 24217G   26022.16453521  .00310150  00000+0  24648-2 0  9997
2 62063  53.1567 300.7980 0001152  92.3612 267.7538 15.69764552 67860
STARLINK-11456 [DTC]    
1 62064U 24217H   26022.26244815  .00268600  00000+0  21440-2 0  9992
2 62064  53.1564 299.9752 0001057  87.9798 272.1340 15.69787336 67881
STARLINK-11474 [DTC]    
1 62065U 24217J   26022.18404103  .00044357  00000+0  36877-3 0  9994
2 62065  53.1571 300.1919 0001605 159.3730 200.7353 15.69726495 67878
STARLINK-11463 [DTC]    
1 62066U 24217K   26022.14491406  .00168994  00000+0  13691-2 0  9995
2 62066  53.1560 300.6682 0001611  53.1208 306.9958 15.69752166 67860
STARLINK-11472 [DTC]    
1 62067U 24217L   26022.24292233  .00118264  00000+0  96675-3 0  9993
2 62067  53.1563 300.5792 0001017  98.7057 261.4077 15.69720215 67803
STARLINK-11467 [DTC]    
1 62068U 24217M   26022.20367135  .00215342  00000+0  17311-2 0  9998
2 62068  53.1566 300.3206 0001158  68.2417 291.8724 15.69786011 67872
STARLINK-11460 [DTC]    
1 62069U 24217N   26022.04700428  .00120138  00000+0  98144-3 0  9999
2 62069  53.1569 301.4874 0000952  95.9852 264.1274 15.69728264 67789
STARLINK-32604          
1 62070U 24217P   26022.22499345  .00054251  00000+0  18326-2 0  9999
2 62070  53.1585  49.9852 0001340  92.5333 267.5821 15.30163326 66300
STARLINK-32553          
1 62071U 24217Q   26022.22393178  .00044622  00000+0  15097-2 0  9990
2 62071  53.1574  49.9796 0001336  31.1981 328.9099 15.30199824 66355
STARLINK-32603          
1 62072U 24217R   26022.34295763  .00027352  00000+0  93270-3 0  9996
2 62072  53.1584  49.2964 0001365  96.9528 263.1628 15.30183014 66379
STARLINK-32444          
1 62073U 24217S   26022.27131397  .00028716  00000+0  97874-3 0  9990
2 62073  53.1601  49.5818 0001316  75.2486 284.8660 15.30172426 66315
STARLINK-32619          
1 62074U 24217T   26022.22921053  .00038902  00000+0  13202-2 0  9992
2 62074  53.1576  50.0107 0000651  92.8161 267.2914 15.30164907 66302
STARLINK-32580          
1 62075U 24217U   26022.21704558  .00027803  00000+0  94748-3 0  9994
2 62075  53.1615  37.1546 0001318  93.3756 266.7396 15.30194934 66487
STARLINK-32617          
1 62076U 24217V   26022.32128989  .00030735  00000+0  10456-2 0  9996
2 62076  53.1579  36.3813 0001038 108.9961 251.1153 15.30199789 66500
SUPERVIEW NEO-2 03      
1 62079U 24218B   26021.61542180  .00005991  00000+0  28357-3 0  9990
2 62079  97.4393  31.0413 0001707  93.6335 266.5096 15.19717089 64188
SUPERVIEW NEO-2 04      
1 62080U 24218C   26021.61542143  .00006680  00000+0  31580-3 0  9999
2 62080  97.4393  31.0464 0001409 108.9612 251.1776 15.19716550 64180
KINEIS-5C               
1 62081U 24219A   26022.28271905  .00001875  00000+0  30428-3 0  9991
2 62081  97.9893 184.5646 0002659 109.0364 251.1131 14.72320153 62283
KINEIS-5D               
1 62082U 24219B   26022.31620872  .00001818  00000+0  29533-3 0  9999
2 62082  97.9791 184.6304 0003581 102.7544 257.4064 14.72298310 62292
KINEIS-5E               
1 62083U 24219C   26022.26526896  .00001705  00000+0  27721-3 0  9997
2 62083  97.9888 184.7319 0001722  95.2697 264.8707 14.72357894 62296
KINEIS-5A               
1 62084U 24219D   26022.29816437  .00002356  00000+0  37969-3 0  9992
2 62084  97.9858 184.8429 0003567  65.9338 294.2242 14.72398458 62306
KINEIS-5B               
1 62085U 24219E   26022.30295435  .00003567  00000+0  50309-3 0  9992
2 62085  97.9876 187.1583 0002390  46.5694 313.5716 14.77850408 62457
STARLINK-11384 [DTC]    
1 62088U 24220A   26021.73159444  .00391482  00000+0  28850-2 0  9993
2 62088  42.9999 326.5020 0002329 254.0484 106.0127 15.71070434 67663
STARLINK-11379 [DTC]    
1 62089U 24220B   26022.23496755  .00309815  00000+0  23230-2 0  9995
2 62089  42.9990 323.3919 0001353 348.5140  11.5697 15.70901875 67642
STARLINK-11387 [DTC]    
1 62090U 24220C   26022.16605736  .00251289  00000+0  18884-2 0  9990
2 62090  42.9964 323.7323 0005312 239.7636 120.2706 15.71016364 67738
STARLINK-11389 [DTC]    
1 62091U 24220D   26022.22434487  .00286936  00000+0  21586-2 0  9991
2 62091  42.9996 323.3068 0001389 274.9835  85.0874 15.70892342 67649
STARLINK-11388 [DTC]    
1 62092U 24220E   26022.21902773  .00233770  00000+0  17633-2 0  9995
2 62092  42.9979 323.2636 0003528 250.7069 109.3417 15.70988185 67643
STARLINK-11345 [DTC]    
1 62093U 24220F   26022.33335648  .00101394  00000+0  78514-3 0  9992
2 62093  43.0003 322.5026 0001708 273.5613  43.8144 15.70807308  5890
STARLINK-11381 [DTC]    
1 62094U 24220G   26022.20842234  .00304088  00000+0  22847-2 0  9995
2 62094  43.0001 323.1791 0001468 264.4914  95.5786 15.70871392 67642
STARLINK-11369 [DTC]    
1 62095U 24220H   26021.56726877  .00295602  00000+0  22272-2 0  9991
2 62095  42.9993 326.9677 0000318  41.5116 318.5776 15.70828330 67647
STARLINK-11303 [DTC]    
1 62096U 24220J   26022.19779106  .00270699  00000+0  20425-2 0  9992
2 62096  42.9994 323.0931 0001758 246.7437 113.3245 15.70871008 67747
STARLINK-11367 [DTC]    
1 62097U 24220K   26022.00171963  .00221767  00000+0  16807-2 0  9991
2 62097  43.0005 324.1999 0002302 240.6481 119.4157 15.70914874 67712
STARLINK-11386 [DTC]    
1 62098U 24220L   26022.18717669  .00303063  00000+0  22700-2 0  9999
2 62098  42.9987 323.0080 0002585 254.1132 105.9450 15.70947444 67642
STARLINK-11380 [DTC]    
1 62099U 24220M   26022.24543804  .00233629  00000+0  17648-2 0  9990
2 62099  42.9992 322.5816 0003117 246.8886 113.1653 15.70955597 67651
STARLINK-33566          
1 62100U 24220N   26022.21789068  .00029580  00000+0  10799-2 0  9993
2 62100  43.0020  93.2845 0004742 298.4541  61.5833 15.27579097 66258
STARLINK-33545          
1 62101U 24220P   26022.26223146  .00043039  00000+0  15635-2 0  9998
2 62101  42.9981 107.4891 0002332 293.0371  67.0235 15.27597788 65924
STARLINK-33562          
1 62102U 24220Q   26022.27378776  .00051904  00000+0  18796-2 0  9991
2 62102  43.0001 107.5782 0001720 259.5207 100.5451 15.27629210 65924
STARLINK-33554          
1 62103U 24220R   26022.25837959  .00041068  00000+0  14931-2 0  9990
2 62103  42.9989 107.4617 0003139 287.8471  72.2039 15.27588572 65851
STARLINK-33555          
1 62104U 24220S   26021.24559410  .00045669  00000+0  16557-2 0  9999
2 62104  42.9989 113.6114 0002548 209.9151 150.1556 15.27641418 65901
STARLINK-33559          
1 62107U 24220V   26022.28790697  .00027510  00000+0  10045-2 0  9992
2 62107  43.0040 107.6849 0003883 297.8333  62.2125 15.27607211 66092
STARLINK-33553          
1 62108U 24220W   26022.28022170  .00013539  00000+0  50079-3 0  9995
2 62108  43.0008 107.6258 0001418 153.6474 206.4450 15.27567214 66099
STARLINK-33556          
1 62109U 24220X   26022.26607836  .00038463  00000+0  13997-2 0  9992
2 62109  43.0010 107.5182 0004928 287.1867  72.8445 15.27577548 66119
STARLINK-33551          
1 62110U 24220Y   26022.28407729  .00028603  00000+0  10445-2 0  9995
2 62110  42.9960 107.6452 0001093 195.1823 164.8996 15.27591576 66091
GUANGCHUAN 01           
1 62111U 24221A   26022.21471994  .00007329  00000+0  38816-3 0  9990
2 62111  49.9426 153.3136 0006379  75.0155 285.1502 15.16315103 64051
GUANGCHUAN 02           
1 62112U 24221B   26022.21470046  .00007616  00000+0  40237-3 0  9997
2 62112  49.9411 153.2471 0006703 123.9568 236.2021 15.16345449 64047
STARLINK-32311          
1 62114U 24222A   26022.01357257  .00030914  00000+0  11276-2 0  9993
2 62114  43.0007  24.8035 0001361 263.8882  96.1814 15.27597791 65946
STARLINK-32470          
1 62115U 24222B   26022.08619586  .00042932  00000+0  15617-2 0  9993
2 62115  43.0023  39.1998 0001256 268.0437  92.0270 15.27556890 65775
STARLINK-32502          
1 62116U 24222C   26022.30419428  .00038238  00000+0  13916-2 0  9996
2 62116  43.0045  38.2555 0001905 269.6573  90.4060 15.27585812 65717
STARLINK-32521          
1 62117U 24222D   26022.09436819  .00041283  00000+0  15018-2 0  9995
2 62117  43.0045  35.6871 0001545 268.3191  91.7483 15.27569376 65666
STARLINK-32549          
1 62118U 24222E   26022.33357613  .00036305  00000+0  13231-2 0  9991
2 62118  42.9949  37.6171 0001097 138.0526 222.0410 15.27562190 65723
STARLINK-32535          
1 62119U 24222F   26022.31238670  .00046899  00000+0  17019-2 0  9998
2 62119  42.9996  34.8568 0002185 270.1420  89.9182 15.27600593 65709
STARLINK-32548          
1 62120U 24222G   26022.31832676  .00042513  00000+0  15447-2 0  9998
2 62120  42.9994  38.3574 0001478 266.4457  93.6225 15.27597610 65667
STARLINK-32525          
1 62121U 24222H   26022.34002560  .00060499  00000+0  21883-2 0  9997
2 62121  42.9982  37.6606 0001349 276.1572  83.9126 15.27606479 65673
STARLINK-32628          
1 62122U 24222J   26022.09647095  .00061824  00000+0  22362-2 0  9994
2 62122  43.0037  39.2763 0001499 275.7416  84.3264 15.27598120 65791
STARLINK-32626          
1 62123U 24222K   26022.31190610  .00036429  00000+0  13268-2 0  9994
2 62123  43.0009  38.3095 0001295 266.3597  93.7107 15.27579252 65659
STARLINK-32608          
1 62124U 24222L   26022.09002604  .00045609  00000+0  16563-2 0  9996
2 62124  43.0035  39.2264 0001433 286.6284  73.4411 15.27588919 65618
STARLINK-32488          
1 62125U 24222M   26022.32216132  .00033907  00000+0  12352-2 0  9996
2 62125  42.9999  38.3845 0001968 287.3837  72.6799 15.27601623 65557
STARLINK-32490          
1 62126U 24222N   26020.37454977  .00057242  00000+0  20714-2 0  9990
2 62126  43.0006  48.7143 0000865 276.4325  83.6428 15.27615312 65361
STARLINK-32557          
1 62127U 24222P   26022.29017678  .00029094  00000+0  10620-2 0  9996
2 62127  43.0000  27.6176 0001428 283.7449  76.3243 15.27597360 65829
